COSMOS 1933             
1 18958U 88020A   25349.06136281  .00003179  00000+0  15879-3 0  9991
2 18958  82.5125 334.5849 0006003 119.6297 240.5535 15.17127237 37398
SL-3 R/B                
1 19046U 88032B   25349.36517131  .00004313  00000+0  20891-3 0  9994
2 19046  97.5078 328.0676 0027024 163.8925 196.3174 15.18770792 39302
SL-16 R/B               
1 19120U 88039B   25349.14275255 -.00000067  00000+0 -91307-5 0  9994
2 19120  71.0143 247.3176 0019676 112.1702 248.1514 14.19596857946384
COSMOS 1953             
1 19210U 88050A   25349.19458311  .00004950  00000+0  18528-3 0  9993
2 19210  82.5093 243.1181 0013665  64.0849 296.1797 15.26969019 24885
SL-8 R/B                
1 19257U 88053B   25349.19109274  .00000277  00000+0  98279-4 0  9998
2 19257  74.0478 268.2018 0018982 111.4062 355.5515 14.38860766964441
COSMOS 1975             
1 19573U 88093A   25349.33740722  .00006247  00000+0  23746-3 0  9997
2 19573  82.5202 202.2283 0012943 104.5079 255.7596 15.26515185  6532
SL-14 R/B               
1 19574U 88093B   25349.33486815  .00000578  00000+0  63935-4 0  9994
2 19574  82.5307 121.2318 0019749 320.5074 101.6388 14.85551967988511
SL-16 R/B               
1 19650U 88102B   25349.35451608  .00000158  00000+0  10392-3 0  9996
2 19650  70.9999 328.9410 0012880 147.3448 212.8474 14.16136931914954
INTERCOSMOS 24          
1 20261U 89080A   25349.20713665  .00000930  00000+0  26573-3 0  9996
2 20261  82.6046 159.3486 1188878 128.7986 242.5502 12.59444664656166
SL-14 R/B               
1 20262U 89080C   25349.14449200  .00000421  00000+0  12164-3 0  9997
2 20262  82.5926 227.4773 1230636  18.0944 346.0181 12.50415710649586
DELTA 1 R/B             
1 20323U 89089B   25349.32995322  .00000357  00000+0  96913-4 0  9998
2 20323  97.0749 205.1570 0069929  30.2151 330.3052 14.50574265883504
ARIANE 40 R/B           
1 20443U 90005H   25349.17153120  .00000318  00000+0  11470-3 0  9997
2 20443  98.3242  47.2807 0011292  99.1617 261.0850 14.39800466880648
