CCSDS_OMM_VERS = 2.0
CREATION_DATE  = 
ORIGINATOR     = 

OBJECT_NAME    = COSMOS 1933
OBJECT_ID      = 1988-020A
CENTER_NAME    = EARTH
REF_FRAME      = TEME
TIME_SYSTEM    = UTC
MEAN_ELEMENT_THEORY = SGP/SGP4

EPOCH          = 2025-12-15T01:28:21.746784
MEAN_MOTION    = 15.17127237
ECCENTRICITY   = .00060032
INCLINATION    = 82.5125
RA_OF_ASC_NODE = 334.5849
ARG_OF_PERICENTER = 119.6297
MEAN_ANOMALY   = 240.5535

EPHEMERIS_TYPE = 0
CLASSIFICATION_TYPE = U
NORAD_CAT_ID   = 18958
ELEMENT_SET_NO = 999
REV_AT_EPOCH   = 3739
BSTAR          = .15879496E-3
MEAN_MOTION_DOT = .3179E-4
MEAN_MOTION_DDOT = 0

CCSDS_OMM_VERS = 2.0
CREATION_DATE  = 
ORIGINATOR     = 

OBJECT_NAME    = SL-3 R/B
OBJECT_ID      = 1988-032B
CENTER_NAME    = EARTH
REF_FRAME      = TEME
TIME_SYSTEM    = UTC
MEAN_ELEMENT_THEORY = SGP/SGP4

EPOCH          = 2025-12-15T08:45:50.801184
MEAN_MOTION    = 15.18770792
ECCENTRICITY   = .00270243
INCLINATION    = 97.5078
RA_OF_ASC_NODE = 328.0676
ARG_OF_PERICENTER = 163.8925
MEAN_ANOMALY   = 196.3174

EPHEMERIS_TYPE = 0
CLASSIFICATION_TYPE = U
NORAD_CAT_ID   = 19046
ELEMENT_SET_NO = 999
REV_AT_EPOCH   = 3930
BSTAR          = .2089149E-3
MEAN_MOTION_DOT = .4313E-4
MEAN_MOTION_DDOT = 0

CCSDS_OMM_VERS = 2.0
CREATION_DATE  = 
ORIGINATOR     = 

OBJECT_NAME    = SL-16 R/B
OBJECT_ID      = 1988-039B
CENTER_NAME    = EARTH
REF_FRAME      = TEME
TIME_SYSTEM    = UTC
MEAN_ELEMENT_THEORY = SGP/SGP4

EPOCH          = 2025-12-15T03:25:33.820320
MEAN_MOTION    = 14.19596857
ECCENTRICITY   = .00196767
INCLINATION    = 71.0143
RA_OF_ASC_NODE = 247.3176
ARG_OF_PERICENTER = 112.1702
MEAN_ANOMALY   = 248.1514

EPHEMERIS_TYPE = 0
CLASSIFICATION_TYPE = U
NORAD_CAT_ID   = 19120
ELEMENT_SET_NO = 999
REV_AT_EPOCH   = 94638
BSTAR          = -.9130744E-5
MEAN_MOTION_DOT = -.67E-6
MEAN_MOTION_DDOT = 0

CCSDS_OMM_VERS = 2.0
CREATION_DATE  = 
ORIGINATOR     = 

OBJECT_NAME    = COSMOS 1953
OBJECT_ID      = 1988-050A
CENTER_NAME    = EARTH
REF_FRAME      = TEME
TIME_SYSTEM    = UTC
MEAN_ELEMENT_THEORY = SGP/SGP4

EPOCH          = 2025-12-15T04:40:11.980704
MEAN_MOTION    = 15.26969019
ECCENTRICITY   = .00136654
INCLINATION    = 82.5093
RA_OF_ASC_NODE = 243.1181
ARG_OF_PERICENTER = 64.0849
MEAN_ANOMALY   = 296.1797

EPHEMERIS_TYPE = 0
CLASSIFICATION_TYPE = U
NORAD_CAT_ID   = 19210
ELEMENT_SET_NO = 999
REV_AT_EPOCH   = 2488
BSTAR          = .18528444E-3
MEAN_MOTION_DOT = .495E-4
MEAN_MOTION_DDOT = 0

CCSDS_OMM_VERS = 2.0
CREATION_DATE  = 
ORIGINATOR     = 

OBJECT_NAME    = SL-8 R/B
OBJECT_ID      = 1988-053B
CENTER_NAME    = EARTH
REF_FRAME      = TEME
TIME_SYSTEM    = UTC
MEAN_ELEMENT_THEORY = SGP/SGP4

EPOCH          = 2025-12-15T04:35:10.412736
MEAN_MOTION    = 14.38860766
ECCENTRICITY   = .00189824
INCLINATION    = 74.0478
RA_OF_ASC_NODE = 268.2018
ARG_OF_PERICENTER = 111.4062
MEAN_ANOMALY   = 355.5515

EPHEMERIS_TYPE = 0
CLASSIFICATION_TYPE = U
NORAD_CAT_ID   = 19257
ELEMENT_SET_NO = 999
REV_AT_EPOCH   = 96444
BSTAR          = .98279477E-4
MEAN_MOTION_DOT = .277E-5
MEAN_MOTION_DDOT = 0

CCSDS_OMM_VERS = 2.0
CREATION_DATE  = 
ORIGINATOR     = 

OBJECT_NAME    = COSMOS 1975
OBJECT_ID      = 1988-093A
CENTER_NAME    = EARTH
REF_FRAME      = TEME
TIME_SYSTEM    = UTC
MEAN_ELEMENT_THEORY = SGP/SGP4

EPOCH          = 2025-12-15T08:05:51.983808
MEAN_MOTION    = 15.26515185
ECCENTRICITY   = .0012943
INCLINATION    = 82.5202
RA_OF_ASC_NODE = 202.2283
ARG_OF_PERICENTER = 104.5079
MEAN_ANOMALY   = 255.7596

EPHEMERIS_TYPE = 0
CLASSIFICATION_TYPE = U
NORAD_CAT_ID   = 19573
ELEMENT_SET_NO = 999
REV_AT_EPOCH   = 653
BSTAR          = .23746451E-3
MEAN_MOTION_DOT = .6247E-4
MEAN_MOTION_DDOT = 0

CCSDS_OMM_VERS = 2.0
CREATION_DATE  = 
ORIGINATOR     = 

OBJECT_NAME    = SL-14 R/B
OBJECT_ID      = 1988-093B
CENTER_NAME    = EARTH
REF_FRAME      = TEME
TIME_SYSTEM    = UTC
MEAN_ELEMENT_THEORY = SGP/SGP4

EPOCH          = 2025-12-15T08:02:12.608160
MEAN_MOTION    = 14.85551967
ECCENTRICITY   = .00197496
INCLINATION    = 82.5307
RA_OF_ASC_NODE = 121.2318
ARG_OF_PERICENTER = 320.5074
MEAN_ANOMALY   = 101.6388

EPHEMERIS_TYPE = 0
CLASSIFICATION_TYPE = U
NORAD_CAT_ID   = 19574
ELEMENT_SET_NO = 999
REV_AT_EPOCH   = 98851
BSTAR          = .63934954E-4
MEAN_MOTION_DOT = .578E-5
MEAN_MOTION_DDOT = 0

CCSDS_OMM_VERS = 2.0
CREATION_DATE  = 
ORIGINATOR     = 

OBJECT_NAME    = SL-16 R/B
OBJECT_ID      = 1988-102B
CENTER_NAME    = EARTH
REF_FRAME      = TEME
TIME_SYSTEM    = UTC
MEAN_ELEMENT_THEORY = SGP/SGP4

EPOCH          = 2025-12-15T08:30:30.189312
MEAN_MOTION    = 14.16136931
ECCENTRICITY   = .00128801
INCLINATION    = 70.9999
RA_OF_ASC_NODE = 328.9410
ARG_OF_PERICENTER = 147.3448
MEAN_ANOMALY   = 212.8474

EPHEMERIS_TYPE = 0
CLASSIFICATION_TYPE = U
NORAD_CAT_ID   = 19650
ELEMENT_SET_NO = 999
REV_AT_EPOCH   = 91495
BSTAR          = .10391594E-3
MEAN_MOTION_DOT = .158E-5
MEAN_MOTION_DDOT = 0

CCSDS_OMM_VERS = 2.0
CREATION_DATE  = 
ORIGINATOR     = 

OBJECT_NAME    = INTERCOSMOS 24
OBJECT_ID      = 1989-080A
CENTER_NAME    = EARTH
REF_FRAME      = TEME
TIME_SYSTEM    = UTC
MEAN_ELEMENT_THEORY = SGP/SGP4

EPOCH          = 2025-12-15T04:58:16.606560
MEAN_MOTION    = 12.59444664
ECCENTRICITY   = .11888784
INCLINATION    = 82.6046
RA_OF_ASC_NODE = 159.3486
ARG_OF_PERICENTER = 128.7986
MEAN_ANOMALY   = 242.5502

EPHEMERIS_TYPE = 0
CLASSIFICATION_TYPE = U
NORAD_CAT_ID   = 20261
ELEMENT_SET_NO = 999
REV_AT_EPOCH   = 65616
BSTAR          = .26573444E-3
MEAN_MOTION_DOT = .93E-5
MEAN_MOTION_DDOT = 0

CCSDS_OMM_VERS = 2.0
CREATION_DATE  = 
ORIGINATOR     = 

OBJECT_NAME    = SL-14 R/B
OBJECT_ID      = 1989-080C
CENTER_NAME    = EARTH
REF_FRAME      = TEME
TIME_SYSTEM    = UTC
MEAN_ELEMENT_THEORY = SGP/SGP4

EPOCH          = 2025-12-15T03:28:04.108800
MEAN_MOTION    = 12.50415710
ECCENTRICITY   = .12306366
INCLINATION    = 82.5926
RA_OF_ASC_NODE = 227.4773
ARG_OF_PERICENTER = 18.0944
MEAN_ANOMALY   = 346.0181

EPHEMERIS_TYPE = 0
CLASSIFICATION_TYPE = U
NORAD_CAT_ID   = 20262
ELEMENT_SET_NO = 999
REV_AT_EPOCH   = 64958
BSTAR          = .12163571E-3
MEAN_MOTION_DOT = .421E-5
MEAN_MOTION_DDOT = 0

CCSDS_OMM_VERS = 2.0
CREATION_DATE  = 
ORIGINATOR     = 

OBJECT_NAME    = DELTA 1 R/B
OBJECT_ID      = 1989-089B
CENTER_NAME    = EARTH
REF_FRAME      = TEME
TIME_SYSTEM    = UTC
MEAN_ELEMENT_THEORY = SGP/SGP4

EPOCH          = 2025-12-15T07:55:07.958208
MEAN_MOTION    = 14.50574265
ECCENTRICITY   = .00699292
INCLINATION    = 97.0749
RA_OF_ASC_NODE = 205.1570
ARG_OF_PERICENTER = 30.2151
MEAN_ANOMALY   = 330.3052

EPHEMERIS_TYPE = 0
CLASSIFICATION_TYPE = U
NORAD_CAT_ID   = 20323
ELEMENT_SET_NO = 999
REV_AT_EPOCH   = 88350
BSTAR          = .96913331E-4
MEAN_MOTION_DOT = .357E-5
MEAN_MOTION_DDOT = 0

CCSDS_OMM_VERS = 2.0
CREATION_DATE  = 
ORIGINATOR     = 

OBJECT_NAME    = ARIANE 40 R/B
OBJECT_ID      = 1990-005H
CENTER_NAME    = EARTH
REF_FRAME      = TEME
TIME_SYSTEM    = UTC
MEAN_ELEMENT_THEORY = SGP/SGP4

EPOCH          = 2025-12-15T04:07:00.295680
MEAN_MOTION    = 14.39800466
ECCENTRICITY   = .00112927
INCLINATION    = 98.3242
RA_OF_ASC_NODE = 47.2807
ARG_OF_PERICENTER = 99.1617
MEAN_ANOMALY   = 261.0850

EPHEMERIS_TYPE = 0
CLASSIFICATION_TYPE = U
NORAD_CAT_ID   = 20443
ELEMENT_SET_NO = 999
REV_AT_EPOCH   = 88064
BSTAR          = .11469761E-3
MEAN_MOTION_DOT = .318E-5
MEAN_MOTION_DDOT = 0

